{
  "type": "FeatureCollection",
  "features": [
    {
      "type": "Feature",
      "properties": {
        "norad_id": 34425,
        "name": "COSMOS 2251 DEB",
        "group": "cosmos-2251-debris",
        "lat": -7.6324449459320265,
        "lon": -146.5197378284189,
        "alt_km": 675.4415038310981,
        "timestamp": "2025-12-24T20:42:21.419787+00:00",
        "meta_object_name": "COSMOS 2251 DEB",
        "meta_object_id": "1993-036RS",
        "meta_epoch": "2025-12-24T05:04:21.100512",
        "meta_mean_motion": 14.62186798,
        "meta_eccentricity": 0.00241643,
        "meta_inclination": 74.019,
        "meta_ra_of_asc_node": 32.5275,
        "meta_arg_of_pericenter": 155.7363,
        "meta_mean_anomaly": 204.4947,
        "meta_ephemeris_type": 0,
        "meta_classification_type": "U",
        "meta_norad_cat_id": 34425,
        "meta_element_set_no": 999,
        "meta_rev_at_epoch": 88908,
        "meta_bstar": 0.00053335773,
        "meta_mean_motion_dot": 2.667e-05,
        "meta_mean_motion_ddot": 0,
        "tle_line1": "1 34425U 93036RS  25358.21135533  .00002667  00000+0  53336-3 0  9998",
        "tle_line2": "2 34425  74.0190  32.5275 0024164 155.7363 204.4947 14.62186798889087"
      },
      "geometry": {
        "type": "Point",
        "coordinates": [
          -146.5197378284189,
          -7.6324449459320265
        ]
      }
    },
    {
      "type": "Feature",
      "properties": {
        "norad_id": 34429,
        "name": "COSMOS 2251 DEB",
        "group": "cosmos-2251-debris",
        "lat": -34.92046713438172,
        "lon": -26.87420418955193,
        "alt_km": 436.983414254757,
        "timestamp": "2025-12-24T20:42:21.419797+00:00",
        "meta_object_name": "COSMOS 2251 DEB",
        "meta_object_id": "1993-036RW",
        "meta_epoch": "2025-12-23T11:24:33.759936",
        "meta_mean_motion": 15.46114926,
        "meta_eccentricity": 0.00127415,
        "meta_inclination": 73.9691,
        "meta_ra_of_asc_node": 144.5841,
        "meta_arg_of_pericenter": 346.525,
        "meta_mean_anomaly": 69.5569,
        "meta_ephemeris_type": 0,
        "meta_classification_type": "U",
        "meta_norad_cat_id": 34429,
        "meta_element_set_no": 999,
        "meta_rev_at_epoch": 89614,
        "meta_bstar": 0.0053841018,
        "meta_mean_motion_dot": 0.00273992,
        "meta_mean_motion_ddot": 0,
        "tle_line1": "1 34429U 93036RW  25357.47539074  .00273992  00000+0  53841-2 0  9998",
        "tle_line2": "2 34429  73.9691 144.5841 0012741 346.5250  69.5569 15.46114926896143"
      },
      "geometry": {
        "type": "Point",
        "coordinates": [
          -26.87420418955193,
          -34.92046713438172
        ]
      }
    },
    {
      "type": "Feature",
      "properties": {
        "norad_id": 34430,
        "name": "COSMOS 2251 DEB",
        "group": "cosmos-2251-debris",
        "lat": 63.268584968875636,
        "lon": -44.41006918844667,
        "alt_km": 745.6401296700933,
        "timestamp": "2025-12-24T20:42:21.419807+00:00",
        "meta_object_name": "COSMOS 2251 DEB",
        "meta_object_id": "1993-036RX",
        "meta_epoch": "2025-12-24T05:22:59.112192",
        "meta_mean_motion": 14.39665611,
        "meta_eccentricity": 0.00608687,
        "meta_inclination": 74.0519,
        "meta_ra_of_asc_node": 282.1723,
        "meta_arg_of_pericenter": 349.1516,
        "meta_mean_anomaly": 10.8321,
        "meta_ephemeris_type": 0,
        "meta_classification_type": "U",
        "meta_norad_cat_id": 34430,
        "meta_element_set_no": 999,
        "meta_rev_at_epoch": 88120,
        "meta_bstar": 0.00044390291,
        "meta_mean_motion_dot": 1.393e-05,
        "meta_mean_motion_ddot": 0,
        "tle_line1": "1 34430U 93036RX  25358.22429528  .00001393  00000+0  44390-3 0  9990",
        "tle_line2": "2 34430  74.0519 282.1723 0060868 349.1516  10.8321 14.39665611881200"
      },
      "geometry": {
        "type": "Point",
        "coordinates": [
          -44.41006918844667,
          63.268584968875636
        ]
      }
    },
    {
      "type": "Feature",
      "properties": {
        "norad_id": 34431,
        "name": "COSMOS 2251 DEB",
        "group": "cosmos-2251-debris",
        "lat": -35.25149940415226,
        "lon": -15.101957919313564,
        "alt_km": 793.7230375100462,
        "timestamp": "2025-12-24T20:42:21.419817+00:00",
        "meta_object_name": "COSMOS 2251 DEB",
        "meta_object_id": "1993-036RY",
        "meta_epoch": "2025-12-24T04:34:37.657632",
        "meta_mean_motion": 14.2881231,
        "meta_eccentricity": 0.00677395,
        "meta_inclination": 74.0739,
        "meta_ra_of_asc_node": 154.4716,
        "meta_arg_of_pericenter": 137.1151,
        "meta_mean_anomaly": 223.5309,
        "meta_ephemeris_type": 0,
        "meta_classification_type": "U",
        "meta_norad_cat_id": 34431,
        "meta_element_set_no": 999,
        "meta_rev_at_epoch": 87306,
        "meta_bstar": 0.00067414761,
        "meta_mean_motion_dot": 1.717e-05,
        "meta_mean_motion_ddot": 0,
        "tle_line1": "1 34431U 93036RY  25358.19071363  .00001717  00000+0  67415-3 0  9990",
        "tle_line2": "2 34431  74.0739 154.4716 0067739 137.1151 223.5309 14.28812310873064"
      },
      "geometry": {
        "type": "Point",
        "coordinates": [
          -15.101957919313564,
          -35.25149940415226
        ]
      }
    },
    {
      "type": "Feature",
      "properties": {
        "norad_id": 34432,
        "name": "COSMOS 2251 DEB",
        "group": "cosmos-2251-debris",
        "lat": 4.452507609398383,
        "lon": -100.32841099545014,
        "alt_km": 757.2577422314416,
        "timestamp": "2025-12-24T20:42:21.419827+00:00",
        "meta_object_name": "COSMOS 2251 DEB",
        "meta_object_id": "1993-036RZ",
        "meta_epoch": "2025-12-24T00:11:24.408096",
        "meta_mean_motion": 14.02951654,
        "meta_eccentricity": 0.01814936,
        "meta_inclination": 73.8282,
        "meta_ra_of_asc_node": 82.4719,
        "meta_arg_of_pericenter": 163.3786,
        "meta_mean_anomaly": 15.6362,
        "meta_ephemeris_type": 0,
        "meta_classification_type": "U",
        "meta_norad_cat_id": 34432,
        "meta_element_set_no": 999,
        "meta_rev_at_epoch": 85842,
        "meta_bstar": 0.00099992948,
        "meta_mean_motion_dot": 1.769e-05,
        "meta_mean_motion_ddot": 0,
        "tle_line1": "1 34432U 93036RZ  25358.00792139  .00001769  00000+0  99993-3 0  9995",
        "tle_line2": "2 34432  73.8282  82.4719 0181493 163.3786  15.6362 14.02951654858426"
      },
      "geometry": {
        "type": "Point",
        "coordinates": [
          -100.32841099545014,
          4.452507609398383
        ]
      }
    },
    {
      "type": "Feature",
      "properties": {
        "norad_id": 34433,
        "name": "COSMOS 2251 DEB",
        "group": "cosmos-2251-debris",
        "lat": -73.83145265153102,
        "lon": 51.99344135871696,
        "alt_km": 746.1257546820689,
        "timestamp": "2025-12-24T20:42:21.419837+00:00",
        "meta_object_name": "COSMOS 2251 DEB",
        "meta_object_id": "1993-036SA",
        "meta_epoch": "2025-12-23T11:07:34.769568",
        "meta_mean_motion": 14.12897188,
        "meta_eccentricity": 0.01528438,
        "meta_inclination": 74.0105,
        "meta_ra_of_asc_node": 135.9459,
        "meta_arg_of_pericenter": 271.7573,
        "meta_mean_anomaly": 86.6067,
        "meta_ephemeris_type": 0,
        "meta_classification_type": "U",
        "meta_norad_cat_id": 34433,
        "meta_element_set_no": 999,
        "meta_rev_at_epoch": 86101,
        "meta_bstar": 0.0011648246,
        "meta_mean_motion_dot": 2.397e-05,
        "meta_mean_motion_ddot": 0,
        "tle_line1": "1 34433U 93036SA  25357.46359687  .00002397  00000+0  11648-2 0  9990",
        "tle_line2": "2 34433  74.0105 135.9459 0152843 271.7573  86.6067 14.12897188861015"
      },
      "geometry": {
        "type": "Point",
        "coordinates": [
          51.99344135871696,
          -73.83145265153102
        ]
      }
    },
    {
      "type": "Feature",
      "properties": {
        "norad_id": 34434,
        "name": "COSMOS 2251 DEB",
        "group": "cosmos-2251-debris",
        "lat": -57.40713441341125,
        "lon": -163.9479226927815,
        "alt_km": 1022.9950063781407,
        "timestamp": "2025-12-24T20:42:21.419848+00:00",
        "meta_object_name": "COSMOS 2251 DEB",
        "meta_object_id": "1993-036SB",
        "meta_epoch": "2025-12-24T07:46:21.129024",
        "meta_mean_motion": 13.89875047,
        "meta_eccentricity": 0.02735643,
        "meta_inclination": 74.0624,
        "meta_ra_of_asc_node": 350.4216,
        "meta_arg_of_pericenter": 124.9098,
        "meta_mean_anomaly": 298.075,
        "meta_ephemeris_type": 0,
        "meta_classification_type": "U",
        "meta_norad_cat_id": 34434,
        "meta_element_set_no": 999,
        "meta_rev_at_epoch": 84127,
        "meta_bstar": 0.0019582134,
        "meta_mean_motion_dot": 3.236e-05,
        "meta_mean_motion_ddot": 0,
        "tle_line1": "1 34434U 93036SB  25358.32385566  .00003236  00000+0  19582-2 0  9990",
        "tle_line2": "2 34434  74.0624 350.4216 0273564 124.9098 298.0750 13.89875047841279"
      },
      "geometry": {
        "type": "Point",
        "coordinates": [
          -163.9479226927815,
          -57.40713441341125
        ]
      }
    }
  ]
}